{
  "type": "FeatureCollection",
  "features": [
    {
      "type": "Feature",
      "properties": {
        "norad_id": 38068,
        "name": "COSMOS 2251 DEB",
        "group": "cosmos-2251-debris",
        "lat": -55.59996679388683,
        "lon": 145.50182754051,
        "alt_km": 793.3367632955342,
        "timestamp": "2025-12-16T19:34:24.666707+00:00",
        "meta_object_name": "COSMOS 2251 DEB",
        "meta_object_id": "1993-036BSA",
        "meta_epoch": "2025-11-26T00:12:22.263264",
        "meta_mean_motion": 14.35960004,
        "meta_eccentricity": 0.00240903,
        "meta_inclination": 74.0219,
        "meta_ra_of_asc_node": 338.9788,
        "meta_arg_of_pericenter": 72.1007,
        "meta_mean_anomaly": 288.2769,
        "meta_ephemeris_type": 0,
        "meta_classification_type": "U",
        "meta_norad_cat_id": 38068,
        "meta_element_set_no": 999,
        "meta_rev_at_epoch": 66406,
        "meta_bstar": 0.00028750999,
        "meta_mean_motion_dot": 8.11e-06,
        "meta_mean_motion_ddot": 0,
        "tle_line1": "1 38068U 93036BSA 25330.00859101  .00000811  00000+0  28751-3 0  9998",
        "tle_line2": "2 38068  74.0219 338.9788 0024090  72.1007 288.2769 14.35960004664064"
      },
      "geometry": {
        "type": "Point",
        "coordinates": [
          145.50182754051,
          -55.59996679388683
        ]
      }
    },
    {
      "type": "Feature",
      "properties": {
        "norad_id": 38197,
        "name": "COSMOS 2251 DEB",
        "group": "cosmos-2251-debris",
        "lat": 62.24445653759779,
        "lon": 22.238774322823456,
        "alt_km": 723.1218687585806,
        "timestamp": "2025-12-16T19:34:24.666718+00:00",
        "meta_object_name": "COSMOS 2251 DEB",
        "meta_object_id": "1993-036BSM",
        "meta_epoch": "2025-12-15T17:12:16.336800",
        "meta_mean_motion": 14.74191742,
        "meta_eccentricity": 0.01256793,
        "meta_inclination": 73.9374,
        "meta_ra_of_asc_node": 351.2002,
        "meta_arg_of_pericenter": 227.9167,
        "meta_mean_anomaly": 131.1266,
        "meta_ephemeris_type": 0,
        "meta_classification_type": "U",
        "meta_norad_cat_id": 38197,
        "meta_element_set_no": 999,
        "meta_rev_at_epoch": 85799,
        "meta_bstar": 0.0020909891,
        "meta_mean_motion_dot": 0.00015677,
        "meta_mean_motion_ddot": 0,
        "tle_line1": "1 38197U 93036BSM 25349.71685575  .00015677  00000+0  20910-2 0  9995",
        "tle_line2": "2 38197  73.9374 351.2002 0125679 227.9167 131.1266 14.74191742857998"
      },
      "geometry": {
        "type": "Point",
        "coordinates": [
          22.238774322823456,
          62.24445653759779
        ]
      }
    },
    {
      "type": "Feature",
      "properties": {
        "norad_id": 38199,
        "name": "COSMOS 2251 DEB",
        "group": "cosmos-2251-debris",
        "lat": 54.90837919420524,
        "lon": 79.66970981203016,
        "alt_km": 942.823321023171,
        "timestamp": "2025-12-16T19:34:24.666729+00:00",
        "meta_object_name": "COSMOS 2251 DEB",
        "meta_object_id": "1993-036BSP",
        "meta_epoch": "2025-12-15T20:26:01.047264",
        "meta_mean_motion": 13.6479812,
        "meta_eccentricity": 0.03697807,
        "meta_inclination": 73.9561,
        "meta_ra_of_asc_node": 57.0764,
        "meta_arg_of_pericenter": 342.9397,
        "meta_mean_anomaly": 15.9546,
        "meta_ephemeris_type": 0,
        "meta_classification_type": "U",
        "meta_norad_cat_id": 38199,
        "meta_element_set_no": 999,
        "meta_rev_at_epoch": 61064,
        "meta_bstar": 0.00050452401,
        "meta_mean_motion_dot": 6.25e-06,
        "meta_mean_motion_ddot": 0,
        "tle_line1": "1 38199U 93036BSP 25349.85140101  .00000625  00000+0  50452-3 0  9995",
        "tle_line2": "2 38199  73.9561  57.0764 0369780 342.9397  15.9546 13.64798120610640"
      },
      "geometry": {
        "type": "Point",
        "coordinates": [
          79.66970981203016,
          54.90837919420524
        ]
      }
    },
    {
      "type": "Feature",
      "properties": {
        "norad_id": 38208,
        "name": "COSMOS 2251 DEB",
        "group": "cosmos-2251-debris",
        "lat": 18.040653233064642,
        "lon": -114.5426430670018,
        "alt_km": 615.4361941399375,
        "timestamp": "2025-12-16T19:34:24.666739+00:00",
        "meta_object_name": "COSMOS 2251 DEB",
        "meta_object_id": "1993-036BSY",
        "meta_epoch": "2025-12-15T05:46:42.754368",
        "meta_mean_motion": 14.8400172,
        "meta_eccentricity": 0.00017643,
        "meta_inclination": 74.0057,
        "meta_ra_of_asc_node": 73.9438,
        "meta_arg_of_pericenter": 154.1528,
        "meta_mean_anomaly": 237.1904,
        "meta_ephemeris_type": 0,
        "meta_classification_type": "U",
        "meta_norad_cat_id": 38208,
        "meta_element_set_no": 999,
        "meta_rev_at_epoch": 71196,
        "meta_bstar": 0.0014297718,
        "meta_mean_motion_dot": 0.00011892,
        "meta_mean_motion_ddot": 0,
        "tle_line1": "1 38208U 93036BSY 25349.24077262  .00011892  00000+0  14298-2 0  9991",
        "tle_line2": "2 38208  74.0057  73.9438 0001764 154.1528 237.1904 14.84001720711961"
      },
      "geometry": {
        "type": "Point",
        "coordinates": [
          -114.5426430670018,
          18.040653233064642
        ]
      }
    },
    {
      "type": "Feature",
      "properties": {
        "norad_id": 38212,
        "name": "COSMOS 2251 DEB",
        "group": "cosmos-2251-debris",
        "lat": 17.691329058520406,
        "lon": 73.84204388812385,
        "alt_km": 664.5290065246427,
        "timestamp": "2025-12-16T19:34:24.666749+00:00",
        "meta_object_name": "COSMOS 2251 DEB",
        "meta_object_id": "1993-036BTC",
        "meta_epoch": "2025-12-13T23:14:48.711840",
        "meta_mean_motion": 14.77697426,
        "meta_eccentricity": 0.00923484,
        "meta_inclination": 74.0527,
        "meta_ra_of_asc_node": 74.1891,
        "meta_arg_of_pericenter": 140.8526,
        "meta_mean_anomaly": 219.9379,
        "meta_ephemeris_type": 0,
        "meta_classification_type": "U",
        "meta_norad_cat_id": 38212,
        "meta_element_set_no": 999,
        "meta_rev_at_epoch": 81328,
        "meta_bstar": 0.00051158029,
        "meta_mean_motion_dot": 3.901e-05,
        "meta_mean_motion_ddot": 0,
        "tle_line1": "1 38212U 93036BTC 25347.96861935  .00003901  00000+0  51158-3 0  9990",
        "tle_line2": "2 38212  74.0527  74.1891 0092348 140.8526 219.9379 14.77697426813280"
      },
      "geometry": {
        "type": "Point",
        "coordinates": [
          73.84204388812385,
          17.691329058520406
        ]
      }
    },
    {
      "type": "Feature",
      "properties": {
        "norad_id": 38220,
        "name": "COSMOS 2251 DEB",
        "group": "cosmos-2251-debris",
        "lat": 31.956150402786637,
        "lon": 70.39116843763442,
        "alt_km": 582.4892416468902,
        "timestamp": "2025-12-16T19:34:24.666759+00:00",
        "meta_object_name": "COSMOS 2251 DEB",
        "meta_object_id": "1993-036BTL",
        "meta_epoch": "2025-12-15T11:15:49.097664",
        "meta_mean_motion": 14.93101324,
        "meta_eccentricity": 0.00049703,
        "meta_inclination": 74.0151,
        "meta_ra_of_asc_node": 62.7994,
        "meta_arg_of_pericenter": 37.6366,
        "meta_mean_anomaly": 322.5164,
        "meta_ephemeris_type": 0,
        "meta_classification_type": "U",
        "meta_norad_cat_id": 38220,
        "meta_element_set_no": 999,
        "meta_rev_at_epoch": 71411,
        "meta_bstar": 0.0017694768,
        "meta_mean_motion_dot": 0.00018461,
        "meta_mean_motion_ddot": 0,
        "tle_line1": "1 38220U 93036BTL 25349.46931826  .00018461  00000+0  17695-2 0  9997",
        "tle_line2": "2 38220  74.0151  62.7994 0004970  37.6366 322.5164 14.93101324714118"
      },
      "geometry": {
        "type": "Point",
        "coordinates": [
          70.39116843763442,
          31.956150402786637
        ]
      }
    },
    {
      "type": "Feature",
      "properties": {
        "norad_id": 38479,
        "name": "COSMOS 2251 DEB",
        "group": "cosmos-2251-debris",
        "lat": 71.53403651527789,
        "lon": -124.05415540802399,
        "alt_km": 811.4280101804497,
        "timestamp": "2025-12-16T19:34:24.666769+00:00",
        "meta_object_name": "COSMOS 2251 DEB",
        "meta_object_id": "1993-036BTP",
        "meta_epoch": "2025-12-13T19:29:32.997408",
        "meta_mean_motion": 14.3831318,
        "meta_eccentricity": 0.0084157,
        "meta_inclination": 74.007,
        "meta_ra_of_asc_node": 182.3013,
        "meta_arg_of_pericenter": 291.0961,
        "meta_mean_anomaly": 83.9532,
        "meta_ephemeris_type": 0,
        "meta_classification_type": "U",
        "meta_norad_cat_id": 38479,
        "meta_element_set_no": 999,
        "meta_rev_at_epoch": 64703,
        "meta_bstar": 0.0021939338,
        "meta_mean_motion_dot": 6.938e-05,
        "meta_mean_motion_ddot": 0,
        "tle_line1": "1 38479U 93036BTP 25347.81218747  .00006938  00000+0  21939-2 0  9992",
        "tle_line2": "2 38479  74.0070 182.3013 0084157 291.0961  83.9532 14.38313180647034"
      },
      "geometry": {
        "type": "Point",
        "coordinates": [
          -124.05415540802399,
          71.53403651527789
        ]
      }
    }
  ]
}